GLOBALSTAR M084         
1 38040U 11080A   26026.37471770 -.00000093  00000+0  61812-4 0  9991
2 38040  52.0009  89.0111 0000866 133.4330 307.3951 12.62267474650853
GLOBALSTAR M080         
1 38041U 11080B   26026.48973909 -.00000097  00000+0  37465-4 0  9996
2 38041  52.0061  90.3305 0000192  88.6518 284.7685 12.62265681650998
GLOBALSTAR M082         
1 38042U 11080C   26026.36660838 -.00000091  00000+0  72459-4 0  9994
2 38042  52.0086  46.1904 0000191  42.9958  60.4270 12.62267051651689
GLOBALSTAR M092         
1 38043U 11080D   26026.49348234 -.00000083  00000+0  11685-3 0  9996
2 38043  52.0080 136.1929 0000852 111.1115 329.1172 12.62269761650156
GLOBALSTAR M090         
1 38044U 11080E   26026.29441302 -.00000095  00000+0  49676-4 0  9990
2 38044  52.0134  40.3208 0000404  86.0260 287.9161 12.62266238651793
GLOBALSTAR M086         
1 38045U 11080F   26026.33793757 -.00000110  00000+0 -33955-4 0  9992
2 38045  51.9912  40.3490 0001469  96.3407   7.9057 12.62282051651748
GLOBALSTAR M097         
1 39072U 13005A   26025.78936134 -.00000090  00000+0  79485-4 0  9992
2 39072  52.0068 316.8079 0000763  61.4802 298.6141 12.62268341598924
GLOBALSTAR M093         
1 39073U 13005B   26026.47581982 -.00000076  00000+0  15261-3 0  9992
2 39073  52.0125 308.0128 0001012  53.7647 306.3313 12.62272171598964
